0 CONNECTA IOT-1
1 60472U 24149E   26161.46218355  .00003565  00000-0  15237-3 0  9999
2 60472  97.3759 237.8672 0000859 357.8976   2.2257 15.23488943100773
0 LOPEN
1 60473U 24149F   26161.50093374  .00013658  00000-0  34997-3 0  9995
2 60473  97.3777 244.8175 0000177 191.7449 168.3793 15.39494105101238
0 ROCK
1 60474U 24149G   26161.48748631  .00014118  00000-0  36169-3 0  9991
2 60474  97.3773 244.8198 0000479 219.1939 140.9272 15.39491484101239
0 CONNECTA IOT-3
1 60475U 24149H   26161.48361305  .00003848  00000-0  16418-3 0  9994
2 60475  97.3734 237.6434 0001385 305.8162  54.2946 15.23501028100781
0 QUBE
1 60476U 24149J   26161.18781927  .00021794  00000-0  43466-3 0  9991
2 60476  97.3773 247.4884 0001331 214.5294 145.5869 15.46882316101388
0 WREN-1
1 60478U 24149L   26161.51278964  .00018354  00000-0  44233-3 0  9993
2 60478  97.3767 245.5565 0002952 282.8586  77.2331 15.41293470101297
0 TOMORROW-S1
1 60479U 24149M   26161.54233058  .00006721  00000-0  21583-3 0  9990
2 60479  97.3750 242.0357 0001038 256.1896 103.9230 15.32624882101079
0 FLOCK 4BE 18
1 60480U 24149N   26161.20107573  .00016547  00000-0  39459-3 0  9995
2 60480  97.3729 244.8588 0002389 270.0697  90.0276 15.41635789101239
0 FLOCK 4BE 7
1 60481U 24149P   26161.46136223  .00019907  00000-0  49966-3 0  9995
2 60481  97.3757 244.4744 0001569 276.9044  83.2024 15.40043307101212
0 FLOCK 4BE 26
1 60484U 24149S   26161.46847234  .00123195  00000-0  11637-2 0  9997
2 60484  97.3655 247.1636 0004888 217.3655 142.7266 15.66611160101413
0 TOMORROW-S2
1 60485U 24149T   26160.78950723  .00007061  00000-0  22649-3 0  9999
2 60485  97.3815 241.7675 0001371 320.4268  39.6873 15.32641135100959
0 FLOCK 4BE 36
1 60486U 24149U   26161.50084820  .00014255  00000-0  33052-3 0  9990
2 60486  97.3745 245.8501 0002136 291.3936  68.7084 15.42516861101320
0 FLOCK 4BE 25
1 60487U 24149V   26161.19462115  .00013036  00000-0  34336-3 0  9995
2 60487  97.3798 244.2985 0000806 269.8112  90.3041 15.38659096101165
0 FLOCK 4BE 31
1 60488U 24149W   26161.21353537  .00018993  00000-0  42066-3 0  9992
2 60488  97.3798 246.3977 0001070 294.2450  65.8686 15.43823863101300
0 FLOCK 4BE 20
1 60489U 24149X   26161.54492847  .00011802  00000-0  31896-3 0  9998
2 60489  97.3697 243.5471 0002215 287.7856  72.3147 15.37886346101196
0 FLOCK 4BE 23
1 60490U 24149Y   26161.53351714  .00011107  00000-0  30403-3 0  9997
2 60490  97.3779 243.9080 0001924 302.0079  58.0978 15.37507380101172
0 FLOCK 4BE 15
1 60491U 24149Z   26161.47643205  .00083529  00000-0  10833-2 0  9991
2 60491  97.3687 246.6120 0002303 252.6994 107.4011 15.58574418101383
0 FLOCK 4BE 17
1 60492U 24149AA  26161.20178300  .00013735  00000-0  35086-3 0  9992
2 60492  97.3773 244.5177 0001616 276.8581  83.2481 15.39587622101185
0 NUSAT-50 (NANCY ROMAN)
1 60493U 24149AB  26161.49658469  .00008436  00000-0  29539-3 0  9991
2 60493  97.3787 242.7996 0002842 195.6913 164.4240 15.29739140101109
0 FLOCK 4BE 22
1 60494U 24149AC  26161.57918914  .00013980  00000-0  34131-3 0  9999
2 60494  97.3734 245.0786 0002131 292.5802  67.5219 15.40962911101285
0 FLOCK 4BE 34
1 60495U 24149AD  26161.46645493  .00014962  00000-0  36506-3 0  9996
2 60495  97.3781 245.7831 0002061 309.9498  50.1567 15.40965950101293
0 TYCHE
1 60496U 24149AE  26161.51257124  .00003908  00000-0  15514-3 0  9997
2 60496  97.3755 239.4177 0000738 327.2304  32.8889 15.25932943100883
0 FLOCK 4BE 32
1 60497U 24149AF  26161.50423578  .00016649  00000-0  39310-3 0  9991
2 60497  97.3720 245.3602 0002154 296.8758  63.2269 15.41934996101309
0 NUSAT-48 (H. LEAVITT)
1 60498U 24149AG  26161.48539530  .00008462  00000-0  29392-3 0  9998
2 60498  97.3914 243.0194 0002540 311.6205  48.4818 15.30003791101110
0 FLOCK 4BE 30
1 60499U 24149AH  26161.50327767  .00110651  00000-0  16397-2 0  9993
2 60499  97.3779 246.8050 0003317 239.4462 120.6465 15.54863623100739
0 NUSAT-49(K.VON NEUMANN)
1 60500U 24149AJ  26161.52908987  .00007535  00000-0  26339-3 0  9991
2 60500  97.3781 242.8632 0001553  13.7339 346.3944 15.29834946101113
0 FLOCK 4BE 11
1 60501U 24149AK  26161.50240020  .00015562  00000-0  35764-3 0  9998
2 60501  97.3701 245.5823 0002312 295.5432  64.5577 15.42762344101327
0 YAM-7
1 60504U 24149AN  26161.45937931  .00006587  00000-0  21756-3 0  9992
2 60504  97.3783 241.7366 0002433 343.9978  16.1186 15.31726634101023
0 FLOCK 4BE 24
1 60505U 24149AP  26161.16501847  .00018851  00000-0  43183-3 0  9999
2 60505  97.3712 245.4943 0002552 311.8242  48.2787 15.42816293101282
0 LUR-1
1 60506U 24149AQ  26161.18058615  .00006285  00000-0  21893-3 0  9994
2 60506  97.3738 240.0598 0003365 352.2761   7.8428 15.30015041100906
